CCSDS_OMM_VERS = 2.0
CREATION_DATE  = 
ORIGINATOR     = 

OBJECT_NAME    = UNKNOWN
OBJECT_ID      = 
CENTER_NAME    = EARTH
REF_FRAME      = TEME
TIME_SYSTEM    = UTC
MEAN_ELEMENT_THEORY = SGP/SGP4

EPOCH          = 2026-03-10T18:53:30.684480
MEAN_MOTION    = 12.97988193
ECCENTRICITY   = .00275438
INCLINATION    = 90.2410
RA_OF_ASC_NODE = 3.1570
ARG_OF_PERICENTER = 304.1666
MEAN_ANOMALY   = 55.6843

EPHEMERIS_TYPE = 0
CLASSIFICATION_TYPE = U
NORAD_CAT_ID   = 270058
ELEMENT_SET_NO = 999
REV_AT_EPOCH   = 29777
BSTAR          = .20259618E-2
MEAN_MOTION_DOT = .6E-5
MEAN_MOTION_DDOT = 0

CCSDS_OMM_VERS = 2.0
CREATION_DATE  = 
ORIGINATOR     = 

OBJECT_NAME    = UNKNOWN
OBJECT_ID      = 
CENTER_NAME    = EARTH
REF_FRAME      = TEME
TIME_SYSTEM    = UTC
MEAN_ELEMENT_THEORY = SGP/SGP4

EPOCH          = 2026-03-01T21:42:12.522240
MEAN_MOTION    = 12.23008222
ECCENTRICITY   = .01299549
INCLINATION    = 73.9978
RA_OF_ASC_NODE = 304.8036
ARG_OF_PERICENTER = 284.0299
MEAN_ANOMALY   = 74.6318

EPHEMERIS_TYPE = 0
CLASSIFICATION_TYPE = U
NORAD_CAT_ID   = 270059
ELEMENT_SET_NO = 999
REV_AT_EPOCH   = 27966
BSTAR          = .19178849E-3
MEAN_MOTION_DOT = .6E-7
MEAN_MOTION_DDOT = 0

CCSDS_OMM_VERS = 2.0
CREATION_DATE  = 
ORIGINATOR     = 

OBJECT_NAME    = UNKNOWN
OBJECT_ID      = 
CENTER_NAME    = EARTH
REF_FRAME      = TEME
TIME_SYSTEM    = UTC
MEAN_ELEMENT_THEORY = SGP/SGP4

EPOCH          = 2026-02-26T08:17:12.882336
MEAN_MOTION    = 13.50848669
ECCENTRICITY   = .05367509
INCLINATION    = 30.1001
RA_OF_ASC_NODE = 80.1719
ARG_OF_PERICENTER = 0.6050
MEAN_ANOMALY   = 359.5100

EPHEMERIS_TYPE = 0
CLASSIFICATION_TYPE = U
NORAD_CAT_ID   = 270060
ELEMENT_SET_NO = 999
REV_AT_EPOCH   = 30625
BSTAR          = .39896965E-2
MEAN_MOTION_DOT = .6507E-4
MEAN_MOTION_DDOT = 0

CCSDS_OMM_VERS = 2.0
CREATION_DATE  = 
ORIGINATOR     = 

OBJECT_NAME    = UNKNOWN
OBJECT_ID      = 
CENTER_NAME    = EARTH
REF_FRAME      = TEME
TIME_SYSTEM    = UTC
MEAN_ELEMENT_THEORY = SGP/SGP4

EPOCH          = 2026-03-07T13:49:20.232768
MEAN_MOTION    = 14.24287108
ECCENTRICITY   = .00359605
INCLINATION    = 98.8544
RA_OF_ASC_NODE = 19.4633
ARG_OF_PERICENTER = 175.0170
MEAN_ANOMALY   = 185.1373

EPHEMERIS_TYPE = 0
CLASSIFICATION_TYPE = U
NORAD_CAT_ID   = 270063
ELEMENT_SET_NO = 999
REV_AT_EPOCH   = 32612
BSTAR          = .21347631E-3
MEAN_MOTION_DOT = .451E-5
MEAN_MOTION_DDOT = 0

CCSDS_OMM_VERS = 2.0
CREATION_DATE  = 
ORIGINATOR     = 

OBJECT_NAME    = UNKNOWN
OBJECT_ID      = 
CENTER_NAME    = EARTH
REF_FRAME      = TEME
TIME_SYSTEM    = UTC
MEAN_ELEMENT_THEORY = SGP/SGP4

EPOCH          = 2026-03-06T08:17:18.140640
MEAN_MOTION    = 12.22972953
ECCENTRICITY   = .01318317
INCLINATION    = 74.0018
RA_OF_ASC_NODE = 300.6153
ARG_OF_PERICENTER = 278.6902
MEAN_ANOMALY   = 79.9220

EPHEMERIS_TYPE = 0
CLASSIFICATION_TYPE = U
NORAD_CAT_ID   = 270065
ELEMENT_SET_NO = 999
REV_AT_EPOCH   = 28014
BSTAR          = -.18840341E-4
MEAN_MOTION_DOT = -.18E-6
MEAN_MOTION_DDOT = 0

CCSDS_OMM_VERS = 2.0
CREATION_DATE  = 
ORIGINATOR     = 

OBJECT_NAME    = UNKNOWN
OBJECT_ID      = 
CENTER_NAME    = EARTH
REF_FRAME      = TEME
TIME_SYSTEM    = UTC
MEAN_ELEMENT_THEORY = SGP/SGP4

EPOCH          = 2026-03-05T14:39:25.302528
MEAN_MOTION    = 14.62938422
ECCENTRICITY   = .00096961
INCLINATION    = 32.2213
RA_OF_ASC_NODE = 179.9049
ARG_OF_PERICENTER = 55.5220
MEAN_ANOMALY   = 304.6342

EPHEMERIS_TYPE = 0
CLASSIFICATION_TYPE = U
NORAD_CAT_ID   = 270066
ELEMENT_SET_NO = 999
REV_AT_EPOCH   = 33533
BSTAR          = .147935E-3
MEAN_MOTION_DOT = .806E-5
MEAN_MOTION_DDOT = 0

CCSDS_OMM_VERS = 2.0
CREATION_DATE  = 
ORIGINATOR     = 

OBJECT_NAME    = UNKNOWN
OBJECT_ID      = 
CENTER_NAME    = EARTH
REF_FRAME      = TEME
TIME_SYSTEM    = UTC
MEAN_ELEMENT_THEORY = SGP/SGP4

EPOCH          = 2026-03-02T14:45:57.350304
MEAN_MOTION    = 12.96498249
ECCENTRICITY   = .00321125
INCLINATION    = 90.2529
RA_OF_ASC_NODE = 11.4009
ARG_OF_PERICENTER = 42.1610
MEAN_ANOMALY   = 318.1971

EPHEMERIS_TYPE = 0
CLASSIFICATION_TYPE = U
NORAD_CAT_ID   = 270067
ELEMENT_SET_NO = 999
REV_AT_EPOCH   = 29638
BSTAR          = .20779154E-2
MEAN_MOTION_DOT = .604E-5
MEAN_MOTION_DDOT = 0

CCSDS_OMM_VERS = 2.0
CREATION_DATE  = 
ORIGINATOR     = 

OBJECT_NAME    = UNKNOWN
OBJECT_ID      = 
CENTER_NAME    = EARTH
REF_FRAME      = TEME
TIME_SYSTEM    = UTC
MEAN_ELEMENT_THEORY = SGP/SGP4

EPOCH          = 2026-03-05T04:31:40.416672
MEAN_MOTION    = 13.50446293
ECCENTRICITY   = .07266062
INCLINATION    = 62.7985
RA_OF_ASC_NODE = 224.4342
ARG_OF_PERICENTER = 356.8008
MEAN_ANOMALY   = 2.8494

EPHEMERIS_TYPE = 0
CLASSIFICATION_TYPE = U
NORAD_CAT_ID   = 270070
ELEMENT_SET_NO = 999
REV_AT_EPOCH   = 30839
BSTAR          = .30751603E-3
MEAN_MOTION_DOT = .961E-5
MEAN_MOTION_DDOT = 0

CCSDS_OMM_VERS = 2.0
CREATION_DATE  = 
ORIGINATOR     = 

OBJECT_NAME    = UNKNOWN
OBJECT_ID      = 
CENTER_NAME    = EARTH
REF_FRAME      = TEME
TIME_SYSTEM    = UTC
MEAN_ELEMENT_THEORY = SGP/SGP4

EPOCH          = 2026-03-02T08:49:30.222624
MEAN_MOTION    = 11.27810393
ECCENTRICITY   = .01488298
INCLINATION    = 64.7975
RA_OF_ASC_NODE = 98.2020
ARG_OF_PERICENTER = 48.9860
MEAN_ANOMALY   = 312.3823

EPHEMERIS_TYPE = 0
CLASSIFICATION_TYPE = U
NORAD_CAT_ID   = 270071
ELEMENT_SET_NO = 999
REV_AT_EPOCH   = 25803
BSTAR          = .58147219E-3
MEAN_MOTION_DOT = -.22E-6
MEAN_MOTION_DDOT = 0

CCSDS_OMM_VERS = 2.0
CREATION_DATE  = 
ORIGINATOR     = 

OBJECT_NAME    = UNKNOWN
OBJECT_ID      = 
CENTER_NAME    = EARTH
REF_FRAME      = TEME
TIME_SYSTEM    = UTC
MEAN_ELEMENT_THEORY = SGP/SGP4

EPOCH          = 2026-03-06T09:35:38.016384
MEAN_MOTION    = 13.23147973
ECCENTRICITY   = .01508445
INCLINATION    = 100.3415
RA_OF_ASC_NODE = 127.8689
ARG_OF_PERICENTER = 310.4646
MEAN_ANOMALY   = 48.3401

EPHEMERIS_TYPE = 0
CLASSIFICATION_TYPE = U
NORAD_CAT_ID   = 270073
ELEMENT_SET_NO = 999
REV_AT_EPOCH   = 30272
BSTAR          = .19679922E-2
MEAN_MOTION_DOT = .836E-5
MEAN_MOTION_DDOT = 0

CCSDS_OMM_VERS = 2.0
CREATION_DATE  = 
ORIGINATOR     = 

OBJECT_NAME    = UNKNOWN
OBJECT_ID      = 
CENTER_NAME    = EARTH
REF_FRAME      = TEME
TIME_SYSTEM    = UTC
MEAN_ELEMENT_THEORY = SGP/SGP4

EPOCH          = 2026-03-05T00:08:43.019808
MEAN_MOTION    = 12.86100824
ECCENTRICITY   = .04737755
INCLINATION    = 63.3006
RA_OF_ASC_NODE = 319.2102
ARG_OF_PERICENTER = 16.8470
MEAN_ANOMALY   = 344.7668

EPHEMERIS_TYPE = 0
CLASSIFICATION_TYPE = U
NORAD_CAT_ID   = 270074
ELEMENT_SET_NO = 999
REV_AT_EPOCH   = 29426
BSTAR          = .11690234E-2
MEAN_MOTION_DOT = .394E-5
MEAN_MOTION_DDOT = 0

CCSDS_OMM_VERS = 2.0
CREATION_DATE  = 
ORIGINATOR     = 

OBJECT_NAME    = UNKNOWN
OBJECT_ID      = 
CENTER_NAME    = EARTH
REF_FRAME      = TEME
TIME_SYSTEM    = UTC
MEAN_ELEMENT_THEORY = SGP/SGP4

EPOCH          = 2026-03-06T17:07:05.365056
MEAN_MOTION    = 13.66951788
ECCENTRICITY   = .02666457
INCLINATION    = 98.3469
RA_OF_ASC_NODE = 221.9641
ARG_OF_PERICENTER = 50.2711
MEAN_ANOMALY   = 312.1611

EPHEMERIS_TYPE = 0
CLASSIFICATION_TYPE = U
NORAD_CAT_ID   = 270077
ELEMENT_SET_NO = 999
REV_AT_EPOCH   = 31242
BSTAR          = .1040696E-2
MEAN_MOTION_DOT = .1077E-4
MEAN_MOTION_DDOT = 0

CCSDS_OMM_VERS = 2.0
CREATION_DATE  = 
ORIGINATOR     = 

OBJECT_NAME    = UNKNOWN
OBJECT_ID      = 
CENTER_NAME    = EARTH
REF_FRAME      = TEME
TIME_SYSTEM    = UTC
MEAN_ELEMENT_THEORY = SGP/SGP4

EPOCH          = 2026-03-02T04:59:07.817568
MEAN_MOTION    = 14.35978437
ECCENTRICITY   = .0016542
INCLINATION    = 86.3919
RA_OF_ASC_NODE = 45.3480
ARG_OF_PERICENTER = 335.1778
MEAN_ANOMALY   = 24.8621

EPHEMERIS_TYPE = 0
CLASSIFICATION_TYPE = U
NORAD_CAT_ID   = 270078
ELEMENT_SET_NO = 999
REV_AT_EPOCH   = 32784
BSTAR          = .31392381E-3
MEAN_MOTION_DOT = .932E-5
MEAN_MOTION_DDOT = 0

CCSDS_OMM_VERS = 2.0
CREATION_DATE  = 
ORIGINATOR     = 

OBJECT_NAME    = UNKNOWN
OBJECT_ID      = 
CENTER_NAME    = EARTH
REF_FRAME      = TEME
TIME_SYSTEM    = UTC
MEAN_ELEMENT_THEORY = SGP/SGP4

EPOCH          = 2026-03-07T01:43:28.618464
MEAN_MOTION    = 12.38307433
ECCENTRICITY   = .01630139
INCLINATION    = 56.0456
RA_OF_ASC_NODE = 198.3926
ARG_OF_PERICENTER = 149.6281
MEAN_ANOMALY   = 211.4187

EPHEMERIS_TYPE = 0
CLASSIFICATION_TYPE = U
NORAD_CAT_ID   = 270079
ELEMENT_SET_NO = 999
REV_AT_EPOCH   = 28379
BSTAR          = .30161393E-3
MEAN_MOTION_DOT = -.51E-6
MEAN_MOTION_DDOT = 0

CCSDS_OMM_VERS = 2.0
CREATION_DATE  = 
ORIGINATOR     = 

OBJECT_NAME    = UNKNOWN
OBJECT_ID      = 
CENTER_NAME    = EARTH
REF_FRAME      = TEME
TIME_SYSTEM    = UTC
MEAN_ELEMENT_THEORY = SGP/SGP4

EPOCH          = 2026-03-11T00:26:08.534976
MEAN_MOTION    = 12.96667713
ECCENTRICITY   = .00197369
INCLINATION    = 90.2449
RA_OF_ASC_NODE = 347.9012
ARG_OF_PERICENTER = 355.4499
MEAN_ANOMALY   = 4.6439

EPHEMERIS_TYPE = 0
CLASSIFICATION_TYPE = U
NORAD_CAT_ID   = 270081
ELEMENT_SET_NO = 999
REV_AT_EPOCH   = 29727
BSTAR          = .67860511E-3
MEAN_MOTION_DOT = .202E-5
MEAN_MOTION_DDOT = 0

CCSDS_OMM_VERS = 2.0
CREATION_DATE  = 
ORIGINATOR     = 

OBJECT_NAME    = UNKNOWN
OBJECT_ID      = 
CENTER_NAME    = EARTH
REF_FRAME      = TEME
TIME_SYSTEM    = UTC
MEAN_ELEMENT_THEORY = SGP/SGP4

EPOCH          = 2026-03-12T02:40:22.714464
MEAN_MOTION    = 13.98903655
ECCENTRICITY   = .02213555
INCLINATION    = 74.0112
RA_OF_ASC_NODE = 203.3952
ARG_OF_PERICENTER = 345.1354
MEAN_ANOMALY   = 14.3337

EPHEMERIS_TYPE = 0
CLASSIFICATION_TYPE = U
NORAD_CAT_ID   = 270082
ELEMENT_SET_NO = 999
REV_AT_EPOCH   = 31979
BSTAR          = .93188189E-3
MEAN_MOTION_DOT = .1634E-4
MEAN_MOTION_DDOT = 0

